     2              NAVIGATION DATA                         RINEX VERSION / TYPE
CCRINEXN V1.6.0 UX  CDDIS               08-MAY-05 02:51     PGM / RUN BY / DATE 
IGS BROADCAST EPHEMERIS FILE                                COMMENT             
    0.1304E-07  0.2235E-07 -0.5960E-07 -0.1192E-06          ION ALPHA           
    0.1004E+06  0.1147E+06 -0.1311E+06 -0.4588E+06          ION BETA            
   -0.372529029846E-08-0.115463194561E-13   147456     1322 DELTA-UTC: A0,A1,T,W
    13                                                      LEAP SECONDS        
                                                            END OF HEADER       
22 05  5  7  6  0  0.0 0.219778157771E-04 0.795807864051E-12 0.000000000000E+00
    0.430000000000E+02-0.115312500000E+03 0.462590697331E-08 0.155166328059E+01
   -0.591017305851E-05 0.472507218365E-02 0.419840216637E-05 0.515368364143E+04
    0.540000000000E+06 0.484287738800E-07 0.213989829686E+01-0.121071934700E-06
    0.959037592199E+00 0.298187500000E+03-0.150662683550E+01-0.836177687300E-08
   -0.268225458381E-09 0.000000000000E+00 0.132100000000E+04 0.000000000000E+00
    0.000000000000E+00 0.000000000000E+00-0.181607902050E-07 0.430000000000E+02
    0.533670000000E+06 0.000000000000E+00 0.000000000000E+00 0.000000000000E+00
23 05  5  7  6  0  0.0 0.199580099434E-03-0.216004991671E-11 0.000000000000E+00
    0.810000000000E+02-0.496250000000E+02 0.406124059554E-08 0.110220253854E+01
   -0.260770320892E-05 0.387978728395E-02 0.116955488920E-04 0.515369522667E+04
    0.540000000000E+06 0.782310962677E-07 0.313041582634E+01-0.800937414169E-07
    0.964776719303E+00 0.157125000000E+03 0.223344484506E+01-0.774996567432E-08
    0.298941023522E-09 0.100000000000E+01 0.132100000000E+04 0.000000000000E+00
    0.200000000000E+01 0.000000000000E+00-0.214204192162E-07 0.810000000000E+02
    0.532818000000E+06 0.400000000000E+01 0.000000000000E+00 0.000000000000E+00
24 05  5  7  6  0  0.0 0.150073319674E-04 0.295585778076E-11 0.000000000000E+00
    0.740000000000E+02 0.794375000000E+02 0.457983362560E-08-0.493706370201E+00
    0.413320958614E-05 0.869428750593E-02 0.274926424026E-05 0.515362369537E+04
    0.540000000000E+06-0.173225998878E-06 0.108891231547E+01 0.223517417908E-07
    0.965007207898E+00 0.332375000000E+03-0.116409503881E+01-0.846928135099E-08
    0.285011871888E-09 0.000000000000E+00 0.132100000000E+04 0.000000000000E+00
    0.000000000000E+00 0.000000000000E+00-0.931322574615E-09 0.740000000000E+02
    0.532890000000E+06 0.000000000000E+00 0.000000000000E+00 0.000000000000E+00
25 05  5  7  6  0  0.0 0.923271290958E-04 0.909494701773E-12 0.000000000000E+00
    0.940000000000E+02 0.393437500000E+02 0.527057668353E-08-0.934880607358E+00
    0.211596488953E-05 0.120631126920E-01 0.734068453312E-05 0.515367814255E+04
    0.540000000000E+06-0.216066837311E-06-0.219230556985E+01 0.465661287308E-07
    0.948659828358E+00 0.237906250000E+03-0.146544195089E+01-0.850428280894E-08
    0.588238788221E-09 0.100000000000E+01 0.132100000000E+04 0.000000000000E+00
    0.280000000000E+01 0.000000000000E+00-0.745058059692E-08 0.350000000000E+03
    0.532818000000E+06 0.400000000000E+01 0.000000000000E+00 0.000000000000E+00
26 05  5  7  6  0  0.0 0.219782814384E-04 0.113686837722E-11 0.000000000000E+00
    0.114000000000E+03-0.407812500000E+02 0.372836958727E-08 0.606692827763E-01
   -0.204704701900E-05 0.164161657449E-01 0.124480575323E-04 0.515357542801E+04
    0.540000000000E+06 0.707805156708E-07-0.313301864141E+01 0.227242708206E-06
    0.986543120452E+00 0.155593750000E+03 0.684395357277E+00-0.779032449828E-08
    0.307869966877E-09 0.000000000000E+00 0.132100000000E+04 0.000000000000E+00
    0.100000000000E+01 0.000000000000E+00-0.605359673500E-08 0.626000000000E+03
    0.532860000000E+06 0.000000000000E+00 0.000000000000E+00 0.000000000000E+00
27 05  5  7  6  0  0.0 0.637164339423E-04 0.114823706099E-10 0.000000000000E+00
    0.116000000000E+03 0.448125000000E+02 0.502128058506E-08-0.253266809602E+01
    0.209361314774E-05 0.190491368994E-01 0.602379441261E-05 0.515360166359E+04
    0.540000000000E+06 0.333413481712E-06-0.216227505377E+01-0.298023223877E-07
    0.953156690779E+00 0.255656250000E+03-0.204146568420E+01-0.804462080503E-08
    0.653598653579E-09 0.100000000000E+01 0.132100000000E+04 0.000000000000E+00
    0.200000000000E+01 0.000000000000E+00-0.419095158577E-08 0.628000000000E+03
    0.532818000000E+06 0.400000000000E+01 0.000000000000E+00 0.000000000000E+00
28 05  5  7  6  0  0.0 0.463547185063E-04-0.227373675443E-12 0.000000000000E+00
    0.232000000000E+03-0.426875000000E+02 0.476484133191E-08 0.245441242255E+01
   -0.236742198467E-05 0.101448437199E-01 0.727735459805E-05 0.515364325714E+04
    0.540000000000E+06-0.763684511185E-07-0.104207443305E+01-0.150874257088E-06
    0.959181695482E+00 0.239281250000E+03-0.232203780489E+01-0.799461872224E-08
   -0.580738475803E-09 0.100000000000E+01 0.132100000000E+04 0.000000000000E+00
    0.200000000000E+01 0.000000000000E+00-0.102445483208E-07 0.232000000000E+03
    0.537168000000E+06 0.400000000000E+01 0.000000000000E+00 0.000000000000E+00
29 05  5  7  6  0  0.0 0.217724591494E-04 0.296722646453E-10 0.000000000000E+00
    0.610000000000E+02-0.509375000000E+02 0.366050961778E-08 0.215289960825E+01
   -0.265054404736E-05 0.876036635600E-02 0.126659870148E-04 0.515362401581E+04
    0.540000000000E+06 0.912696123123E-07 0.311667107754E+01-0.186264514923E-08
    0.983389150997E+00 0.144312500000E+03-0.113167552045E+01-0.740673709176E-08
    0.203937066226E-09 0.100000000000E+01 0.132100000000E+04 0.000000000000E+00
    0.340000000000E+01 0.000000000000E+00-0.651925802231E-08 0.573000000000E+03
    0.532806000000E+06 0.400000000000E+01 0.000000000000E+00 0.000000000000E+00
30 05  5  7  6  0  0.0 0.173860695213E-03 0.226236807066E-10 0.000000000000E+00
    0.172000000000E+03-0.420625000000E+02 0.523593238331E-08 0.276389466303E+01
   -0.222958624363E-05 0.798737385776E-02 0.659376382828E-05 0.515370542336E+04
    0.540000000000E+06 0.819563865662E-07-0.108949560724E+01-0.109896063805E-06
    0.943099946755E+00 0.239000000000E+03 0.126658415507E+01-0.822748556494E-08
   -0.588595945955E-09 0.000000000000E+00 0.132100000000E+04 0.000000000000E+00
    0.000000000000E+00 0.000000000000E+00-0.838190317154E-08 0.172000000000E+03
    0.536190000000E+06 0.000000000000E+00 0.000000000000E+00 0.000000000000E+00
31 05  5  7  6  0  0.0 0.263606198132E-04 0.345607986674E-10 0.000000000000E+00
    0.122000000000E+03 0.684687500000E+02 0.469483841601E-08-0.182523514078E+01
    0.353157520294E-05 0.120742571307E-01 0.114608556032E-04 0.515365332222E+04
    0.540000000000E+06 0.251457095146E-06-0.647333599014E-01-0.558793544769E-08
    0.936072897296E+00 0.143531250000E+03 0.110687931355E+01-0.789997192268E-08
   -0.190722230061E-09 0.100000000000E+01 0.132100000000E+04 0.000000000000E+00
    0.200000000000E+01 0.630000000000E+02-0.605359673500E-08 0.122000000000E+03
    0.539298000000E+06 0.400000000000E+01 0.000000000000E+00 0.000000000000E+00
 9 05  5  7  7 59 44.0-0.422061420977E-04-0.170530256582E-11 0.000000000000E+00
    0.164000000000E+03 0.368750000000E+02 0.518235872318E-08-0.687570157223E+00
    0.218302011490E-05 0.166801830055E-01 0.623427331448E-05 0.515366164207E+04
    0.547184000000E+06-0.763684511185E-07-0.214028247817E+01 0.257045030594E-06
    0.955390593019E+00 0.261437500000E+03 0.113816689320E+01-0.858035740633E-08
    0.516092925913E-09 0.100000000000E+01 0.132100000000E+04 0.000000000000E+00
    0.000000000000E+00 0.000000000000E+00-0.558793544769E-08 0.420000000000E+03
    0.546030000000E+06 0.000000000000E+00 0.000000000000E+00 0.000000000000E+00
11 05  5  7  7 59 44.0 0.222372356802E-03 0.409272615798E-11 0.000000000000E+00
    0.230000000000E+02 0.112593750000E+03 0.603739433885E-08 0.226375717914E+00
    0.583007931709E-05 0.412134092767E-02 0.352598726749E-05 0.515367518616E+04
    0.547184000000E+06 0.149011611938E-07 0.914022274571E+00 0.298023223877E-07
    0.902125643348E+00 0.275468750000E+03 0.246061646209E+00-0.906252034749E-08
    0.215723271454E-09 0.100000000000E+01 0.132100000000E+04 0.000000000000E+00
    0.200000000000E+01 0.000000000000E+00-0.121071934700E-07 0.230000000000E+02
    0.545418000000E+06 0.400000000000E+01 0.000000000000E+00 0.000000000000E+00
19 05  5  7  7 59 44.0-0.200299546123E-04-0.795807864051E-12 0.000000000000E+00
    0.174000000000E+03 0.743750000000E+02 0.424553398639E-08-0.284253736611E+01
    0.403262674808E-05 0.326536549255E-02 0.125300139189E-04 0.515369283295E+04
    0.547184000000E+06 0.763684511185E-07 0.472463525488E-01 0.223517417908E-07
    0.959688535154E+00 0.134468750000E+03-0.168210747105E+01-0.779639617977E-08
   -0.125005206969E-09 0.100000000000E+01 0.132100000000E+04 0.000000000000E+00
    0.200000000000E+01 0.000000000000E+00-0.144354999065E-07 0.174000000000E+03
    0.540018000000E+06 0.400000000000E+01 0.000000000000E+00 0.000000000000E+00
26 05  5  7  7 59 44.0 0.219857320190E-04 0.113686837722E-11 0.000000000000E+00
    0.140000000000E+03-0.410937500000E+02 0.368479634370E-08 0.110856787358E+01
   -0.205449759960E-05 0.164161539869E-01 0.124964863062E-04 0.515357551193E+04
    0.547184000000E+06-0.169500708580E-06-0.313307318338E+01 0.128522515297E-06
    0.986544764772E+00 0.155468750000E+03 0.684397250293E+00-0.769567769872E-08
    0.114290474943E-09 0.100000000000E+01 0.132100000000E+04 0.000000000000E+00
    0.200000000000E+01 0.000000000000E+00-0.605359673500E-08 0.140000000000E+03
    0.542928000000E+06 0.400000000000E+01 0.000000000000E+00 0.000000000000E+00
